OBJECT_NAME,OBJECT_ID,EPOCH,MEAN_MOTION,ECCENTRICITY,INCLINATION,RA_OF_ASC_NODE,ARG_OF_PERICENTER,MEAN_ANOMALY,EPHEMERIS_TYPE,CLASSIFICATION_TYPE,NORAD_CAT_ID,ELEMENT_SET_NO,REV_AT_EPOCH,BSTAR,MEAN_MOTION_DOT,MEAN_MOTION_DDOT
ONEWEB-0068,2020-020Y,2026-06-04T00:43:37.602048,13.11415570,.0001901,87.8906,23.6808,76.5451,283.5888,0,U,45446,999,30087,-.13154E-3,-.34E-6,0
ONEWEB-0046,2020-020Z,2026-06-04T00:31:36.911136,13.11416230,.0002064,87.8901,23.6898,82.5079,277.6284,0,U,45447,999,30088,.71525E-3,.266E-5,0
ONEWEB-0063,2020-020AA,2026-06-04T01:13:18.983424,13.11419085,.0002093,87.8910,23.6821,91.2713,268.8655,0,U,45448,999,30097,-.13663E-2,-.472E-5,0
ONEWEB-0019,2020-020AB,2026-06-03T15:09:53.053056,13.11415932,.0001648,87.8901,23.7525,84.2744,275.8572,0,U,45449,999,30076,.12717E-2,.463E-5,0
ONEWEB-0094,2020-020AC,2026-06-04T01:34:59.879712,13.17650468,.000168,87.9154,8.4579,78.7041,281.4279,0,U,45450,999,30458,-.32821E-4,0,0
ONEWEB-0087,2020-020AD,2026-06-04T01:27:33.962400,13.11418247,.0001861,87.8916,23.6532,73.3520,286.7813,0,U,45451,999,30086,-.50897E-3,-.168E-5,0
ONEWEB-0082,2020-020AE,2026-06-04T01:22:42.104064,13.11418578,.0002087,87.8909,23.6714,74.3468,285.7890,0,U,45452,999,30095,-.10662E-2,-.365E-5,0
ONEWEB-0050,2020-020AF,2026-06-03T15:31:06.838752,14.90320001,.0005081,88.9299,235.0483,55.5612,304.6096,0,U,45453,999,33836,.28399E-3,.278E-4,0
ONEWEB-0034,2020-020AG,2026-06-04T00:24:26.478432,13.10933407,.0001771,87.8905,23.6887,85.3020,274.8310,0,U,45454,999,30086,.13091E-2,.473E-5,0
ONEWEB-0060,2020-020AH,2026-06-04T01:11:53.153664,13.11417494,.0001877,87.8898,23.6813,51.7857,308.3440,0,U,45455,999,30082,-.14455E-2,-.5E-5,0
ONEWEB-0086,2020-020AJ,2026-06-04T00:41:22.247808,13.11417395,.0001331,87.8898,23.6792,76.1321,283.9955,0,U,45456,999,30088,.75849E-3,.282E-5,0
ONEWEB-0088,2020-020AK,2026-06-04T00:09:39.634272,13.11417112,.0002251,87.8919,23.6561,85.1857,274.9528,0,U,45457,999,30081,.16022E-2,.581E-5,0
ONEWEB-0102,2020-100A,2026-06-04T00:30:29.202912,13.12442743,.0001471,87.8941,353.2947,88.0745,272.0552,0,U,47258,999,26300,-.12268E-3,-.31E-6,0
ONEWEB-0109,2020-100B,2026-06-04T00:42:40.800096,13.12442532,.0001703,87.8950,353.2752,92.3931,267.7393,0,U,47259,999,26283,-.81652E-3,-.281E-5,0
ONEWEB-0110,2020-100C,2026-06-04T01:21:43.030656,13.12445006,.0001579,87.8948,353.2540,80.4782,279.6525,0,U,47260,999,26300,-.13426E-3,-.36E-6,0
ONEWEB-0111,2020-100D,2026-06-04T00:15:50.286816,13.12443435,.0001765,87.8952,353.2824,82.2024,277.9305,0,U,47261,999,26283,.89923E-3,.336E-5,0
ONEWEB-0114,2020-100E,2026-06-04T00:59:45.108384,13.12444039,.0001788,87.8949,353.2728,97.0466,263.0866,0,U,47262,999,26279,-.8617E-3,-.297E-5,0
ONEWEB-0117,2020-100F,2026-06-04T00:47:33.389376,13.12442029,.0001756,87.8949,353.2664,87.5133,272.6197,0,U,47263,999,26280,-.98416E-3,-.341E-5,0
ONEWEB-0118,2020-100G,2026-06-04T01:36:21.081024,13.12444016,.0001998,87.8949,353.2623,95.6634,264.4722,0,U,47264,999,26300,.94846E-3,.354E-5,0
ONEWEB-0119,2020-100H,2026-06-04T00:23:10.323744,13.12441916,.0001786,87.8928,353.2887,90.7723,269.3610,0,U,47265,999,26297,.42795E-3,.167E-5,0
ONEWEB-0120,2020-100J,2026-06-04T00:57:31.227264,13.12443971,.000166,87.8941,353.2861,99.6806,260.4510,0,U,47266,999,26300,-.89124E-3,-.308E-5,0
ONEWEB-0121,2020-100K,2026-06-04T00:40:14.484288,13.12441884,.000189,87.8952,353.2738,78.4200,281.7141,0,U,47267,999,26291,-.71745E-3,-.245E-5,0
ONEWEB-0122,2020-100L,2026-06-04T00:31:42.845952,13.12440488,.0001583,87.8953,353.2789,92.7579,267.3730,0,U,47268,999,26282,-.73416E-3,-.251E-5,0
ONEWEB-0123,2020-100M,2026-06-04T00:25:36.869376,13.12442645,.0001835,87.8942,353.2893,89.7977,270.3362,0,U,47269,999,26296,.30643E-3,.123E-5,0
ONEWEB-0124,2020-100N,2026-06-04T00:10:58.891584,13.12442810,.0001835,87.8941,353.2944,86.5408,273.5931,0,U,47270,999,26284,.10744E-2,.399E-5,0
ONEWEB-0125,2020-100P,2026-06-04T01:29:02.512896,13.12444591,.0002143,87.8954,353.2654,86.6977,273.4397,0,U,47271,999,26291,-.11289E-3,-.28E-6,0
ONEWEB-0126,2020-100Q,2026-06-04T00:08:44.380608,13.12442082,.0001745,87.8947,353.2929,92.5071,267.6257,0,U,47272,999,26297,.10298E-2,.383E-5,0
ONEWEB-0127,2020-100R,2026-06-04T01:09:30.731040,13.12443998,.0001726,87.8940,353.2838,89.1351,270.9976,0,U,47273,999,26300,-.82383E-3,-.284E-5,0
ONEWEB-0128,2020-100S,2026-06-04T01:41:13.746336,13.12443205,.0001574,87.8940,353.2936,83.1746,276.9561,0,U,47274,999,26302,.1085E-2,.403E-5,0
ONEWEB-0129,2020-100T,2026-06-04T01:11:56.988960,13.12443154,.0001788,87.8950,353.2699,125.4258,234.7038,0,U,47275,999,26295,-.79621E-3,-.274E-5,0
