ONEWEB-0068             
1 45446U 20020Y   26155.03029632 -.00000034  00000+0 -13154-3 0  9996
2 45446  87.8906  23.6808 0001901  76.5451 283.5888 13.11415570300877
ONEWEB-0046             
1 45447U 20020Z   26155.02195499  .00000266  00000+0  71525-3 0  9992
2 45447  87.8901  23.6898 0002064  82.5079 277.6284 13.11416230300885
ONEWEB-0063             
1 45448U 20020AA  26155.05091416 -.00000472  00000+0 -13663-2 0  9999
2 45448  87.8910  23.6821 0002093  91.2713 268.8655 13.11419085300971
ONEWEB-0019             
1 45449U 20020AB  26154.63186404  .00000463  00000+0  12717-2 0  9992
2 45449  87.8901  23.7525 0001648  84.2744 275.8572 13.11415932300765
ONEWEB-0094             
1 45450U 20020AC  26155.06597083  .00000000  00000+0 -32821-4 0  9999
2 45450  87.9154   8.4579 0001680  78.7041 281.4279 13.17650468304583
ONEWEB-0087             
1 45451U 20020AD  26155.06080975 -.00000168  00000+0 -50897-3 0  9995
2 45451  87.8916  23.6532 0001861  73.3520 286.7813 13.11418247300861
ONEWEB-0082             
1 45452U 20020AE  26155.05743176 -.00000365  00000+0 -10662-2 0  9998
2 45452  87.8909  23.6714 0002087  74.3468 285.7890 13.11418578300950
ONEWEB-0050             
1 45453U 20020AF  26154.64660693  .00002780  00000+0  28399-3 0  9993
2 45453  88.9299 235.0483 0005081  55.5612 304.6096 14.90320001338362
ONEWEB-0034             
1 45454U 20020AG  26155.01697313  .00000473  00000+0  13091-2 0  9994
2 45454  87.8905  23.6887 0001771  85.3020 274.8310 13.10933407300862
ONEWEB-0060             
1 45455U 20020AH  26155.04992076 -.00000500  00000+0 -14455-2 0  9990
2 45455  87.8898  23.6813 0001877  51.7857 308.3440 13.11417494300822
ONEWEB-0086             
1 45456U 20020AJ  26155.02872972  .00000282  00000+0  75849-3 0  9991
2 45456  87.8898  23.6792 0001331  76.1321 283.9955 13.11417395300886
ONEWEB-0088             
1 45457U 20020AK  26155.00670873  .00000581  00000+0  16022-2 0  9995
2 45457  87.8919  23.6561 0002251  85.1857 274.9528 13.11417112300817
ONEWEB-0102             
1 47258U 20100A   26155.02117133 -.00000031  00000+0 -12268-3 0  9993
2 47258  87.8941 353.2947 0001471  88.0745 272.0552 13.12442743263008
ONEWEB-0109             
1 47259U 20100B   26155.02963889 -.00000281  00000+0 -81652-3 0  9991
2 47259  87.8950 353.2752 0001703  92.3931 267.7393 13.12442532262836
ONEWEB-0110             
1 47260U 20100C   26155.05674804 -.00000036  00000+0 -13426-3 0  9994
2 47260  87.8948 353.2540 0001579  80.4782 279.6525 13.12445006263001
ONEWEB-0111             
1 47261U 20100D   26155.01099869  .00000336  00000+0  89923-3 0  9999
2 47261  87.8952 353.2824 0001765  82.2024 277.9305 13.12443435262839
ONEWEB-0114             
1 47262U 20100E   26155.04149431 -.00000297  00000+0 -86170-3 0  9993
2 47262  87.8949 353.2728 0001788  97.0466 263.0866 13.12444039262792
ONEWEB-0117             
1 47263U 20100F   26155.03302534 -.00000341  00000+0 -98416-3 0  9994
2 47263  87.8949 353.2664 0001756  87.5133 272.6197 13.12442029262804
ONEWEB-0118             
1 47264U 20100G   26155.06691066  .00000354  00000+0  94846-3 0  9994
2 47264  87.8949 353.2623 0001998  95.6634 264.4722 13.12444016263008
ONEWEB-0119             
1 47265U 20100H   26155.01609171  .00000167  00000+0  42795-3 0  9994
2 47265  87.8928 353.2887 0001786  90.7723 269.3610 13.12441916262979
ONEWEB-0120             
1 47266U 20100J   26155.03994476 -.00000308  00000+0 -89124-3 0  9998
2 47266  87.8941 353.2861 0001660  99.6806 260.4510 13.12443971263007
ONEWEB-0121             
1 47267U 20100K   26155.02794542 -.00000245  00000+0 -71745-3 0  9990
2 47267  87.8952 353.2738 0001890  78.4200 281.7141 13.12441884262917
ONEWEB-0122             
1 47268U 20100L   26155.02202368 -.00000251  00000+0 -73416-3 0  9995
2 47268  87.8953 353.2789 0001583  92.7579 267.3730 13.12440488262825
ONEWEB-0123             
1 47269U 20100M   26155.01778784  .00000123  00000+0  30643-3 0  9996
2 47269  87.8942 353.2893 0001835  89.7977 270.3362 13.12442645262965
ONEWEB-0124             
1 47270U 20100N   26155.00762606  .00000399  00000+0  10744-2 0  9997
2 47270  87.8941 353.2944 0001835  86.5408 273.5931 13.12442810262845
ONEWEB-0125             
1 47271U 20100P   26155.06183464 -.00000028  00000+0 -11289-3 0  9990
2 47271  87.8954 353.2654 0002143  86.6977 273.4397 13.12444591262914
ONEWEB-0126             
1 47272U 20100Q   26155.00606922  .00000383  00000+0  10298-2 0  9994
2 47272  87.8947 353.2929 0001745  92.5071 267.6257 13.12442082262979
ONEWEB-0127             
1 47273U 20100R   26155.04827235 -.00000284  00000+0 -82383-3 0  9998
2 47273  87.8940 353.2838 0001726  89.1351 270.9976 13.12443998263001
ONEWEB-0128             
1 47274U 20100S   26155.07029799  .00000403  00000+0  10850-2 0  9991
2 47274  87.8940 353.2936 0001574  83.1746 276.9561 13.12443205263023
ONEWEB-0129             
1 47275U 20100T   26155.04996515 -.00000274  00000+0 -79621-3 0  9998
2 47275  87.8950 353.2699 0001788 125.4258 234.7038 13.12443154262951
